KUIPER-00008            
1 63724U 25088A   25198.91667824 -.00028029  00000+0 -16275-2 0  9998
2 63724  51.8828  77.7670 0013942  52.0171 296.9566 15.11334211  5713
KUIPER-00009            
1 63725U 25088B   25198.91667824 -.01648448  00000+0 -68058-1 0  9998
2 63725  51.8688  72.8296 0011706  62.1896 218.9968 15.26669544 12893
KUIPER-00010            
1 63726U 25088C   25198.05525497  .00010285  00000+0  30136-3 0  9990
2 63726  51.8652  76.6737 0009941  43.0353 317.1408 15.35758423 12392
KUIPER-00011            
1 63727U 25088D   25198.07927842  .00010481  00000+0  31070-3 0  9999
2 63727  51.8571  76.7797 0011765  51.0183 309.1849 15.35350820 12532
KUIPER-00012            
1 63728U 25088E   25198.07798611  .00010323  00000+0  30582-3 0  9992
2 63728  51.8565  76.7616 0011695  52.0533 308.1508 15.35389405 12484
KUIPER-00013            
1 63729U 25088F   25198.91667824 -.01481768  00000+0 -64016-1 0  9992
2 63729  51.8702  73.3231 0008454  36.5987 357.9229 15.24896705 12704
KUIPER-00014            
1 63730U 25088G   25198.91667824 -.00818321  00000+0 -35814-1 0  9996
2 63730  51.8697  74.1676 0011176  44.8049 314.0834 15.24131541  4838
KUIPER-00015            
1 63731U 25088H   25198.91667824 -.00029585  00000+0 -22480-2 0  9999
2 63731  51.8823  81.0287 0009992  34.9904 156.8514 15.01502370  4562
